{
    "type": "FeatureCollection",
    "name": "ams22",
    "crs": {
        "type": "name",
        "properties": {
            "name": "urn:ogc:def:crs:OGC:1.3:CRS84"
        }
    },
    "features": [
        {
            "type": "Feature",
            "properties": {
                "Name": "PH-NXH",
                "description": null,
                "timestamp": null,
                "begin": "2025-05-24T11:24:59.393Z",
                "end": "2025-05-24T13:41:05.445Z",
                "altitudeMode": null,
                "tessellate": -1,
                "extrude": 0,
                "visibility": -1,
                "drawOrder": null,
                "icon": null
            },
            "geometry": {
                "type": "LineString",
                "coordinates": [
                    [
                        4.959621,
                        52.422941,
                        917.0
                    ],
                    [
                        4.954363,
                        52.419123,
                        887.0
                    ],
                    [
                        4.948959,
                        52.415314,
                        856.0
                    ],
                    [
                        4.944083,
                        52.411908,
                        818.0
                    ],
                    [
                        4.939117,
                        52.408539,
                        788.0
                    ],
                    [
                        4.934038,
                        52.405018,
                        765.0
                    ],
                    [
                        4.929504,
                        52.401901,
                        734.0
                    ],
                    [
                        4.924386,
                        52.398407,
                        704.0
                    ],
                    [
                        4.919281,
                        52.394943,
                        673.0
                    ],
                    [
                        4.914028,
                        52.391332,
                        643.0
                    ],
                    [
                        4.909134,
                        52.387939,
                        612.0
                    ],
                    [
                        4.90387,
                        52.384323,
                        582.0
                    ],
                    [
                        4.898911,
                        52.380936,
                        551.0
                    ],
                    [
                        4.89357,
                        52.377228,
                        521.0
                    ],
                    [
                        4.888053,
                        52.373362,
                        498.0
                    ],
                    [
                        4.882952,
                        52.369824,
                        468.0
                    ],
                    [
                        4.877616,
                        52.3661,
                        445.0
                    ],
                    [
                        4.87228,
                        52.36233,
                        414.0
                    ],
                    [
                        4.867414,
                        52.358978,
                        384.0
                    ],
                    [
                        4.862706,
                        52.355719,
                        353.0
                    ],
                    [
                        4.858076,
                        52.35246,
                        323.0
                    ],
                    [
                        4.85274,
                        52.34869,
                        292.0
                    ],
                    [
                        4.84726,
                        52.34491,
                        262.0
                    ],
                    [
                        4.842148,
                        52.341339,
                        231.0
                    ],
                    [
                        4.83696,
                        52.337723,
                        201.0
                    ],
                    [
                        4.831316,
                        52.333746,
                        170.0
                    ],
                    [
                        4.826215,
                        52.330208,
                        140.0
                    ],
                    [
                        4.820938,
                        52.326553,
                        109.0
                    ],
                    [
                        4.816014,
                        52.323133,
                        79.0
                    ],
                    [
                        4.810128,
                        52.318943,
                        56.0
                    ],
                    [
                        4.805734,
                        52.31587,
                        33.0
                    ],
                    [
                        4.800034,
                        52.311905,
                        3.0
                    ],
                    [
                        4.799064,
                        52.311262,
                        3.0
                    ],
                    [
                        4.79616,
                        52.309213,
                        3.0
                    ],
                    [
                        4.79616,
                        52.309213,
                        3.0
                    ]
                ]
            }
        }
    ]
}