{
"type": "FeatureCollection",
"name": "ams3",
"crs": { "type": "name", "properties": { "name": "urn:ogc:def:crs:OGC:1.3:CRS84" } },
"features": [
{ "type": "Feature", "properties": { "Name": "PH-NXH", "description": null, "timestamp": null, "begin": "2025-05-24T11:24:59.393Z", "end": "2025-05-24T13:41:05.445Z", "altitudeMode": null, "tessellate": -1, "extrude": 0, "visibility": -1, "drawOrder": null, "icon": null, "vertex_index": 681, "vertex_part": 0, "vertex_part_index": 681, "distance": 17.33406491909362, "angle": 235.17200056904397, "lon": 5 }, "geometry": { "type": "Point", "coordinates": [ 4.882952, 52.369824, 468.0 ] } },
{ "type": "Feature", "properties": { "Name": "PH-NXH", "description": null, "timestamp": null, "begin": "2025-05-24T11:24:59.393Z", "end": "2025-05-24T13:41:05.445Z", "altitudeMode": null, "tessellate": -1, "extrude": 0, "visibility": -1, "drawOrder": null, "icon": null, "vertex_index": 682, "vertex_part": 0, "vertex_part_index": 682, "distance": 17.340571920860949, "angle": 234.92336747079176, "lon": 5 }, "geometry": { "type": "Point", "coordinates": [ 4.877616, 52.3661, 445.0 ] } },
{ "type": "Feature", "properties": { "Name": "PH-NXH", "description": null, "timestamp": null, "begin": "2025-05-24T11:24:59.393Z", "end": "2025-05-24T13:41:05.445Z", "altitudeMode": null, "tessellate": -1, "extrude": 0, "visibility": -1, "drawOrder": null, "icon": null, "vertex_index": 679, "vertex_part": 0, "vertex_part_index": 679, "distance": 17.321120340725098, "angle": 235.10451019872124, "lon": 5 }, "geometry": { "type": "Point", "coordinates": [ 4.89357, 52.377228, 521.0 ] } },
{ "type": "Feature", "properties": { "Name": "PH-NXH", "description": null, "timestamp": null, "begin": "2025-05-24T11:24:59.393Z", "end": "2025-05-24T13:41:05.445Z", "altitudeMode": null, "tessellate": -1, "extrude": 0, "visibility": -1, "drawOrder": null, "icon": null, "vertex_index": 680, "vertex_part": 0, "vertex_part_index": 680, "distance": 17.32785704949125, "angle": 235.11732118788092, "lon": 5 }, "geometry": { "type": "Point", "coordinates": [ 4.888053, 52.373362, 498.0 ] } },
{ "type": "Feature", "properties": { "Name": "PH-NXH", "description": null, "timestamp": null, "begin": "2025-05-24T11:24:59.393Z", "end": "2025-05-24T13:41:05.445Z", "altitudeMode": null, "tessellate": -1, "extrude": 0, "visibility": -1, "drawOrder": null, "icon": null, "vertex_index": 677, "vertex_part": 0, "vertex_part_index": 677, "distance": 17.308613090849779, "angle": 235.59027815532983, "lon": 5 }, "geometry": { "type": "Point", "coordinates": [ 4.90387, 52.384323, 582.0 ] } },
{ "type": "Feature", "properties": { "Name": "PH-NXH", "description": null, "timestamp": null, "begin": "2025-05-24T11:24:59.393Z", "end": "2025-05-24T13:41:05.445Z", "altitudeMode": null, "tessellate": -1, "extrude": 0, "visibility": -1, "drawOrder": null, "icon": null, "vertex_index": 678, "vertex_part": 0, "vertex_part_index": 678, "distance": 17.314618376022029, "angle": 235.44825397376593, "lon": 5 }, "geometry": { "type": "Point", "coordinates": [ 4.898911, 52.380936, 551.0 ] } },
{ "type": "Feature", "properties": { "Name": "PH-NXH", "description": null, "timestamp": null, "begin": "2025-05-24T11:24:59.393Z", "end": "2025-05-24T13:41:05.445Z", "altitudeMode": null, "tessellate": -1, "extrude": 0, "visibility": -1, "drawOrder": null, "icon": null, "vertex_index": 675, "vertex_part": 0, "vertex_part_index": 675, "distance": 17.296271626081719, "angle": 235.38061422198516, "lon": 5 }, "geometry": { "type": "Point", "coordinates": [ 4.914028, 52.391332, 643.0 ] } },
{ "type": "Feature", "properties": { "Name": "PH-NXH", "description": null, "timestamp": null, "begin": "2025-05-24T11:24:59.393Z", "end": "2025-05-24T13:41:05.445Z", "altitudeMode": null, "tessellate": -1, "extrude": 0, "visibility": -1, "drawOrder": null, "icon": null, "vertex_index": 676, "vertex_part": 0, "vertex_part_index": 676, "distance": 17.302226765458759, "angle": 235.39008348920919, "lon": 5 }, "geometry": { "type": "Point", "coordinates": [ 4.909134, 52.387939, 612.0 ] } },
{ "type": "Feature", "properties": { "Name": "PH-NXH", "description": null, "timestamp": null, "begin": "2025-05-24T11:24:59.393Z", "end": "2025-05-24T13:41:05.445Z", "altitudeMode": null, "tessellate": -1, "extrude": 0, "visibility": -1, "drawOrder": null, "icon": null, "vertex_index": 669, "vertex_part": 0, "vertex_part_index": 669, "distance": 17.259847838867241, "angle": 235.4556567615482, "lon": 5 }, "geometry": { "type": "Point", "coordinates": [ 4.944083, 52.411908, 818.0 ] } },
{ "type": "Feature", "properties": { "Name": "PH-NXH", "description": null, "timestamp": null, "begin": "2025-05-24T11:24:59.393Z", "end": "2025-05-24T13:41:05.445Z", "altitudeMode": null, "tessellate": -1, "extrude": 0, "visibility": -1, "drawOrder": null, "icon": null, "vertex_index": 673, "vertex_part": 0, "vertex_part_index": 673, "distance": 17.283727893522229, "angle": 235.76011144334004, "lon": 5 }, "geometry": { "type": "Point", "coordinates": [ 4.924386, 52.398407, 704.0 ] } },
{ "type": "Feature", "properties": { "Name": "PH-NXH", "description": null, "timestamp": null, "begin": "2025-05-24T11:24:59.393Z", "end": "2025-05-24T13:41:05.445Z", "altitudeMode": null, "tessellate": -1, "extrude": 0, "visibility": -1, "drawOrder": null, "icon": null, "vertex_index": 670, "vertex_part": 0, "vertex_part_index": 670, "distance": 17.265848781876461, "angle": 235.55750290838031, "lon": 5 }, "geometry": { "type": "Point", "coordinates": [ 4.939117, 52.408539, 788.0 ] } },
{ "type": "Feature", "properties": { "Name": "PH-NXH", "description": null, "timestamp": null, "begin": "2025-05-24T11:24:59.393Z", "end": "2025-05-24T13:41:05.445Z", "altitudeMode": null, "tessellate": -1, "extrude": 0, "visibility": -1, "drawOrder": null, "icon": null, "vertex_index": 674, "vertex_part": 0, "vertex_part_index": 674, "distance": 17.28989719826426, "angle": 235.66792316562447, "lon": 5 }, "geometry": { "type": "Point", "coordinates": [ 4.919281, 52.394943, 673.0 ] } },
{ "type": "Feature", "properties": { "Name": "PH-NXH", "description": null, "timestamp": null, "begin": "2025-05-24T11:24:59.393Z", "end": "2025-05-24T13:41:05.445Z", "altitudeMode": null, "tessellate": -1, "extrude": 0, "visibility": -1, "drawOrder": null, "icon": null, "vertex_index": 668, "vertex_part": 0, "vertex_part_index": 668, "distance": 17.253900048353099, "angle": 234.94338590517148, "lon": 5 }, "geometry": { "type": "Point", "coordinates": [ 4.948959, 52.415314, 856.0 ] } },
{ "type": "Feature", "properties": { "Name": "PH-NXH", "description": null, "timestamp": null, "begin": "2025-05-24T11:24:59.393Z", "end": "2025-05-24T13:41:05.445Z", "altitudeMode": null, "tessellate": -1, "extrude": 0, "visibility": -1, "drawOrder": null, "icon": null, "vertex_index": 671, "vertex_part": 0, "vertex_part_index": 671, "distance": 17.272028885597269, "angle": 235.38052121374832, "lon": 5 }, "geometry": { "type": "Point", "coordinates": [ 4.934038, 52.405018, 765.0 ] } },
{ "type": "Feature", "properties": { "Name": "PH-NXH", "description": null, "timestamp": null, "begin": "2025-05-24T11:24:59.393Z", "end": "2025-05-24T13:41:05.445Z", "altitudeMode": null, "tessellate": -1, "extrude": 0, "visibility": -1, "drawOrder": null, "icon": null, "vertex_index": 672, "vertex_part": 0, "vertex_part_index": 672, "distance": 17.277530962023501, "angle": 235.58582184965732, "lon": 5 }, "geometry": { "type": "Point", "coordinates": [ 4.929504, 52.401901, 734.0 ] } },
{ "type": "Feature", "properties": { "Name": "PH-NXH", "description": null, "timestamp": null, "begin": "2025-05-24T11:24:59.393Z", "end": "2025-05-24T13:41:05.445Z", "altitudeMode": null, "tessellate": -1, "extrude": 0, "visibility": -1, "drawOrder": null, "icon": null, "vertex_index": 697, "vertex_part": 0, "vertex_part_index": 697, "distance": 17.43520939381429, "angle": 235.81855949751031, "lon": 5 }, "geometry": { "type": "Point", "coordinates": [ 4.800034, 52.311905, 3.0 ] } },
{ "type": "Feature", "properties": { "Name": "PH-NXH", "description": null, "timestamp": null, "begin": "2025-05-24T11:24:59.393Z", "end": "2025-05-24T13:41:05.445Z", "altitudeMode": null, "tessellate": -1, "extrude": 0, "visibility": -1, "drawOrder": null, "icon": null, "vertex_index": 698, "vertex_part": 0, "vertex_part_index": 698, "distance": 17.436373158824932, "angle": 235.62708175315873, "lon": 5 }, "geometry": { "type": "Point", "coordinates": [ 4.799064, 52.311262, 3.0 ] } },
{ "type": "Feature", "properties": { "Name": "PH-NXH", "description": null, "timestamp": null, "begin": "2025-05-24T11:24:59.393Z", "end": "2025-05-24T13:41:05.445Z", "altitudeMode": null, "tessellate": -1, "extrude": 0, "visibility": -1, "drawOrder": null, "icon": null, "vertex_index": 695, "vertex_part": 0, "vertex_part_index": 695, "distance": 17.42290400813247, "angle": 234.79349982961, "lon": 5 }, "geometry": { "type": "Point", "coordinates": [ 4.810128, 52.318943, 56.0 ] } },
{ "type": "Feature", "properties": { "Name": "PH-NXH", "description": null, "timestamp": null, "begin": "2025-05-24T11:24:59.393Z", "end": "2025-05-24T13:41:05.445Z", "altitudeMode": null, "tessellate": -1, "extrude": 0, "visibility": -1, "drawOrder": null, "icon": null, "vertex_index": 696, "vertex_part": 0, "vertex_part_index": 696, "distance": 17.42826596346611, "angle": 235.10473721415903, "lon": 5 }, "geometry": { "type": "Point", "coordinates": [ 4.805734, 52.31587, 33.0 ] } },
{ "type": "Feature", "properties": { "Name": "PH-NXH", "description": null, "timestamp": null, "begin": "2025-05-24T11:24:59.393Z", "end": "2025-05-24T13:41:05.445Z", "altitudeMode": null, "tessellate": -1, "extrude": 0, "visibility": -1, "drawOrder": null, "icon": null, "vertex_index": 693, "vertex_part": 0, "vertex_part_index": 693, "distance": 17.40968379614057, "angle": 235.25511740836447, "lon": 5 }, "geometry": { "type": "Point", "coordinates": [ 4.820938, 52.326553, 109.0 ] } },
{ "type": "Feature", "properties": { "Name": "PH-NXH", "description": null, "timestamp": null, "begin": "2025-05-24T11:24:59.393Z", "end": "2025-05-24T13:41:05.445Z", "altitudeMode": null, "tessellate": -1, "extrude": 0, "visibility": -1, "drawOrder": null, "icon": null, "vertex_index": 694, "vertex_part": 0, "vertex_part_index": 694, "distance": 17.415678975537389, "angle": 234.88615814860725, "lon": 5 }, "geometry": { "type": "Point", "coordinates": [ 4.816014, 52.323133, 79.0 ] } },
{ "type": "Feature", "properties": { "Name": "PH-NXH", "description": null, "timestamp": null, "begin": "2025-05-24T11:24:59.393Z", "end": "2025-05-24T13:41:05.445Z", "altitudeMode": null, "tessellate": -1, "extrude": 0, "visibility": -1, "drawOrder": null, "icon": null, "vertex_index": 691, "vertex_part": 0, "vertex_part_index": 691, "distance": 17.397056755719479, "angle": 235.04254667507979, "lon": 5 }, "geometry": { "type": "Point", "coordinates": [ 4.831316, 52.333746, 170.0 ] } },
{ "type": "Feature", "properties": { "Name": "PH-NXH", "description": null, "timestamp": null, "begin": "2025-05-24T11:24:59.393Z", "end": "2025-05-24T13:41:05.445Z", "altitudeMode": null, "tessellate": -1, "extrude": 0, "visibility": -1, "drawOrder": null, "icon": null, "vertex_index": 692, "vertex_part": 0, "vertex_part_index": 692, "distance": 17.403264625321839, "angle": 235.27382841385025, "lon": 5 }, "geometry": { "type": "Point", "coordinates": [ 4.826215, 52.330208, 140.0 ] } },
{ "type": "Feature", "properties": { "Name": "PH-NXH", "description": null, "timestamp": null, "begin": "2025-05-24T11:24:59.393Z", "end": "2025-05-24T13:41:05.445Z", "altitudeMode": null, "tessellate": -1, "extrude": 0, "visibility": -1, "drawOrder": null, "icon": null, "vertex_index": 689, "vertex_part": 0, "vertex_part_index": 689, "distance": 17.383828489699351, "angle": 235.09372635338971, "lon": 5 }, "geometry": { "type": "Point", "coordinates": [ 4.842148, 52.341339, 231.0 ] } },
{ "type": "Feature", "properties": { "Name": "PH-NXH", "description": null, "timestamp": null, "begin": "2025-05-24T11:24:59.393Z", "end": "2025-05-24T13:41:05.445Z", "altitudeMode": null, "tessellate": -1, "extrude": 0, "visibility": -1, "drawOrder": null, "icon": null, "vertex_index": 690, "vertex_part": 0, "vertex_part_index": 690, "distance": 17.390152317654, "angle": 234.97681719575863, "lon": 5 }, "geometry": { "type": "Point", "coordinates": [ 4.83696, 52.337723, 201.0 ] } },
{ "type": "Feature", "properties": { "Name": "PH-NXH", "description": null, "timestamp": null, "begin": "2025-05-24T11:24:59.393Z", "end": "2025-05-24T13:41:05.445Z", "altitudeMode": null, "tessellate": -1, "extrude": 0, "visibility": -1, "drawOrder": null, "icon": null, "vertex_index": 687, "vertex_part": 0, "vertex_part_index": 687, "distance": 17.370935502479121, "angle": 235.08039426845997, "lon": 5 }, "geometry": { "type": "Point", "coordinates": [ 4.85274, 52.34869, 292.0 ] } },
{ "type": "Feature", "properties": { "Name": "PH-NXH", "description": null, "timestamp": null, "begin": "2025-05-24T11:24:59.393Z", "end": "2025-05-24T13:41:05.445Z", "altitudeMode": null, "tessellate": -1, "extrude": 0, "visibility": -1, "drawOrder": null, "icon": null, "vertex_index": 688, "vertex_part": 0, "vertex_part_index": 688, "distance": 17.377592739143079, "angle": 235.23325356159279, "lon": 5 }, "geometry": { "type": "Point", "coordinates": [ 4.84726, 52.34491, 262.0 ] } },
{ "type": "Feature", "properties": { "Name": "PH-NXH", "description": null, "timestamp": null, "begin": "2025-05-24T11:24:59.393Z", "end": "2025-05-24T13:41:05.445Z", "altitudeMode": null, "tessellate": -1, "extrude": 0, "visibility": -1, "drawOrder": null, "icon": null, "vertex_index": 685, "vertex_part": 0, "vertex_part_index": 685, "distance": 17.35874008893629, "angle": 235.08338401255335, "lon": 5 }, "geometry": { "type": "Point", "coordinates": [ 4.862706, 52.355719, 353.0 ] } },
{ "type": "Feature", "properties": { "Name": "PH-NXH", "description": null, "timestamp": null, "begin": "2025-05-24T11:24:59.393Z", "end": "2025-05-24T13:41:05.445Z", "altitudeMode": null, "tessellate": -1, "extrude": 0, "visibility": -1, "drawOrder": null, "icon": null, "vertex_index": 686, "vertex_part": 0, "vertex_part_index": 686, "distance": 17.364402065711229, "angle": 234.80836035437349, "lon": 5 }, "geometry": { "type": "Point", "coordinates": [ 4.858076, 52.35246, 323.0 ] } },
{ "type": "Feature", "properties": { "Name": "PH-NXH", "description": null, "timestamp": null, "begin": "2025-05-24T11:24:59.393Z", "end": "2025-05-24T13:41:05.445Z", "altitudeMode": null, "tessellate": -1, "extrude": 0, "visibility": -1, "drawOrder": null, "icon": null, "vertex_index": 683, "vertex_part": 0, "vertex_part_index": 683, "distance": 17.347105357628841, "angle": 235.09825174964797, "lon": 5 }, "geometry": { "type": "Point", "coordinates": [ 4.87228, 52.36233, 414.0 ] } },
{ "type": "Feature", "properties": { "Name": "PH-NXH", "description": null, "timestamp": null, "begin": "2025-05-24T11:24:59.393Z", "end": "2025-05-24T13:41:05.445Z", "altitudeMode": null, "tessellate": -1, "extrude": 0, "visibility": -1, "drawOrder": null, "icon": null, "vertex_index": 684, "vertex_part": 0, "vertex_part_index": 684, "distance": 17.353014152768289, "angle": 235.37327540782775, "lon": 5 }, "geometry": { "type": "Point", "coordinates": [ 4.867414, 52.358978, 384.0 ] } }
]
}
